start=new Date('2022-01-08T00:00:00.000Z').valueOf();
sats=[{"ELEMENT_SET_NO":"999","REV_AT_EPOCH":"6803","MEAN_ANOMALY":"289.4868","RA_OF_ASC_NODE":"213.3684","RCS_SIZE":"LARGE","TIME_SYSTEM":"UTC","MEAN_MOTION_DDOT":"0.0000000000000","SEMIMAJOR_AXIS":"6925.356","BSTAR":"0.00004157000000","NORAD_CAT_ID":"46687","CENTER_NAME":"EARTH","PERIOD":"95.592","LAUNCH_DATE":"2020-10-18","EPOCH":"2022-01-07T20:38:52.250208","CLASSIFICATION_TYPE":"U","APOAPSIS":"548.812","OBJECT_NAME":"STARLINK-1784","REF_FRAME":"TEME","COUNTRY_CODE":"US","ECCENTRICITY":"0.00022970","OBJECT_TYPE":"PAYLOAD","DECAY_DATE":null,"ARG_OF_PERICENTER":"70.6369","MEAN_MOTION_DOT":"0.00000337","TLE_LINE2":"2 46687  53.0542 213.3684 0002297  70.6369 289.4868 15.06397602 68031","PERIAPSIS":"545.630","FILE":"3266804","GP_ID":"193425151","TLE_LINE1":"1 46687U 20073T   22007.86032697  .00000337  00000-0  41570-4 0  9999","INCLINATION":"53.0542","SITE":"AFETR","OBJECT_ID":"2020-073T","EPHEMERIS_TYPE":"0","MEAN_MOTION":"15.06397602","MEAN_ELEMENT_THEORY":"SGP4"},{"OBJECT_TYPE":"PAYLOAD","DECAY_DATE":null,"ARG_OF_PERICENTER":"274.8804","MEAN_MOTION_DOT":"0.00473989","PERIAPSIS":"309.813","TLE_LINE2":"2 46688  53.0509 203.5454 0008043 274.8804  85.1300 15.85401482 68174","FILE":"3266804","GP_ID":"193425400","TLE_LINE1":"1 46688U 20073U   22007.81353247  .00473989  00000-0  18371-2 0  9990","INCLINATION":"53.0509","SITE":"AFETR","OBJECT_ID":"2020-073U","EPHEMERIS_TYPE":"0","MEAN_MOTION":"15.85401482","MEAN_ELEMENT_THEORY":"SGP4","ELEMENT_SET_NO":"999","REV_AT_EPOCH":"6817","MEAN_ANOMALY":"85.1300","RA_OF_ASC_NODE":"203.5454","RCS_SIZE":"LARGE","TIME_SYSTEM":"UTC","MEAN_MOTION_DDOT":"0.0000000000000","SEMIMAJOR_AXIS":"6693.331","BSTAR":"0.00183710000000","NORAD_CAT_ID":"46688","CENTER_NAME":"EARTH","LAUNCH_DATE":"2020-10-18","PERIOD":"90.829","EPOCH":"2022-01-07T19:31:29.205408","APOAPSIS":"320.580","CLASSIFICATION_TYPE":"U","OBJECT_NAME":"STARLINK-1786","ECCENTRICITY":"0.00080430","COUNTRY_CODE":"US","REF_FRAME":"TEME"},{"ARG_OF_PERICENTER":"60.8446","DECAY_DATE":null,"OBJECT_TYPE":"PAYLOAD","TLE_LINE2":"2 46689  53.0551 248.2769 0001981  60.8446 299.2741 15.06389488 68795","PERIAPSIS":"545.874","MEAN_MOTION_DOT":"0.00000877","INCLINATION":"53.0551","GP_ID":"193426139","FILE":"3266804","TLE_LINE1":"1 46689U 20073V   22007.88475319  .00000877  00000-0  77821-4 0  9992","MEAN_MOTION":"15.06389488","MEAN_ELEMENT_THEORY":"SGP4","OBJECT_ID":"2020-073V","SITE":"AFETR","EPHEMERIS_TYPE":"0","MEAN_ANOMALY":"299.2741","RA_OF_ASC_NODE":"248.2769","REV_AT_EPOCH":"6879","RCS_SIZE":"LARGE","ELEMENT_SET_NO":"999","MEAN_MOTION_DDOT":"0.0000000000000","TIME_SYSTEM":"UTC","NORAD_CAT_ID":"46689","SEMIMAJOR_AXIS":"6925.381","BSTAR":"0.00007782100000","EPOCH":"2022-01-07T21:14:02.675616","CLASSIFICATION_TYPE":"U","APOAPSIS":"548.618","CENTER_NAME":"EARTH","LAUNCH_DATE":"2020-10-18","PERIOD":"95.593","ECCENTRICITY":"0.00019810","COUNTRY_CODE":"US","REF_FRAME":"TEME","OBJECT_NAME":"STARLINK-1788"},{"GP_ID":"193400760","FILE":"3266688","TLE_LINE1":"1 46690U 20073W   22007.88520853  .00000686  00000-0  65002-4 0  9994","INCLINATION":"53.0540","OBJECT_ID":"2020-073W","SITE":"AFETR","EPHEMERIS_TYPE":"0","MEAN_MOTION":"15.06394007","MEAN_ELEMENT_THEORY":"SGP4","DECAY_DATE":null,"OBJECT_TYPE":"PAYLOAD","ARG_OF_PERICENTER":"65.7152","PERIAPSIS":"545.743","TLE_LINE2":"2 46690  53.0540 223.2544 0002150  65.7152 294.4062 15.06394007 68376","MEAN_MOTION_DOT":"0.00000686","CENTER_NAME":"EARTH","PERIOD":"95.593","LAUNCH_DATE":"2020-10-18","EPOCH":"2022-01-07T21:14:42.016992","APOAPSIS":"548.721","CLASSIFICATION_TYPE":"U","OBJECT_NAME":"STARLINK-1789","REF_FRAME":"TEME","COUNTRY_CODE":"US","ECCENTRICITY":"0.00021500","ELEMENT_SET_NO":"999","MEAN_ANOMALY":"294.4062","RA_OF_ASC_NODE":"223.2544","REV_AT_EPOCH":"6837","RCS_SIZE":"LARGE","TIME_SYSTEM":"UTC","MEAN_MOTION_DDOT":"0.0000000000000","NORAD_CAT_ID":"46690","BSTAR":"0.00006500200000","SEMIMAJOR_AXIS":"6925.367"},{"MEAN_MOTION_DDOT":"0.0000000000000","TIME_SYSTEM":"UTC","SEMIMAJOR_AXIS":"6925.354","BSTAR":"0.00006009900000","NORAD_CAT_ID":"46691","REV_AT_EPOCH":"6775","MEAN_ANOMALY":"296.7689","RA_OF_ASC_NODE":"233.2791","RCS_SIZE":"LARGE","ELEMENT_SET_NO":"999","REF_FRAME":"TEME","COUNTRY_CODE":"US","ECCENTRICITY":"0.00021910","OBJECT_NAME":"STARLINK-1790","EPOCH":"2022-01-07T21:13:22.118592","CLASSIFICATION_TYPE":"U","APOAPSIS":"548.736","CENTER_NAME":"EARTH","PERIOD":"95.592","LAUNCH_DATE":"2020-10-18","MEAN_MOTION_DOT":"0.00000613","TLE_LINE2":"2 46691  53.0548 233.2791 0002191  63.3524 296.7689 15.06398319 67753","PERIAPSIS":"545.701","ARG_OF_PERICENTER":"63.3524","OBJECT_TYPE":"PAYLOAD","DECAY_DATE":null,"MEAN_MOTION":"15.06398319","MEAN_ELEMENT_THEORY":"SGP4","SITE":"AFETR","OBJECT_ID":"2020-073X","EPHEMERIS_TYPE":"0","INCLINATION":"53.0548","FILE":"3266804","GP_ID":"193424652","TLE_LINE1":"1 46691U 20073X   22007.88428378  .00000613  00000-0  60099-4 0  9995"},{"OBJECT_ID":"2020-073Y","SITE":"AFETR","EPHEMERIS_TYPE":"0","MEAN_MOTION":"15.06389478","MEAN_ELEMENT_THEORY":"SGP4","GP_ID":"193400758","FILE":"3266688","TLE_LINE1":"1 46692U 20073Y   22007.87001128  .00000829  00000-0  74557-4 0  9998","INCLINATION":"53.0535","TLE_LINE2":"2 46692  53.0535 248.3293 0002032  62.5360 297.5836 15.06389478 68027","PERIAPSIS":"545.839","MEAN_MOTION_DOT":"0.00000829","DECAY_DATE":null,"OBJECT_TYPE":"PAYLOAD","ARG_OF_PERICENTER":"62.5360","OBJECT_NAME":"STARLINK-1791","COUNTRY_CODE":"US","REF_FRAME":"TEME","ECCENTRICITY":"0.00020320","CENTER_NAME":"EARTH","LAUNCH_DATE":"2020-10-18","PERIOD":"95.593","EPOCH":"2022-01-07T20:52:48.974592","CLASSIFICATION_TYPE":"U","APOAPSIS":"548.653","MEAN_MOTION_DDOT":"0.0000000000000","TIME_SYSTEM":"UTC","NORAD_CAT_ID":"46692","BSTAR":"0.00007455700000","SEMIMAJOR_AXIS":"6925.381","ELEMENT_SET_NO":"999","MEAN_ANOMALY":"297.5836","RA_OF_ASC_NODE":"248.3293","REV_AT_EPOCH":"6802","RCS_SIZE":"LARGE"},{"MEAN_MOTION_DDOT":"0.0000000000000","TIME_SYSTEM":"UTC","BSTAR":"0.00008578600000","SEMIMAJOR_AXIS":"6925.360","NORAD_CAT_ID":"46693","REV_AT_EPOCH":"6775","MEAN_ANOMALY":"298.6807","RA_OF_ASC_NODE":"233.2510","RCS_SIZE":"LARGE","ELEMENT_SET_NO":"999","ECCENTRICITY":"0.00021500","COUNTRY_CODE":"US","REF_FRAME":"TEME","OBJECT_NAME":"STARLINK-1792","EPOCH":"2022-01-07T21:18:41.293152","APOAPSIS":"548.714","CLASSIFICATION_TYPE":"U","CENTER_NAME":"EARTH","LAUNCH_DATE":"2020-10-18","PERIOD":"95.592","MEAN_MOTION_DOT":"0.00000996","PERIAPSIS":"545.736","TLE_LINE2":"2 46693  53.0541 233.2510 0002150  61.4398 298.6807 15.06396326 67759","ARG_OF_PERICENTER":"61.4398","OBJECT_TYPE":"PAYLOAD","DECAY_DATE":null,"MEAN_MOTION":"15.06396326","MEAN_ELEMENT_THEORY":"SGP4","SITE":"AFETR","OBJECT_ID":"2020-073Z","EPHEMERIS_TYPE":"0","INCLINATION":"53.0541","FILE":"3266804","GP_ID":"193425640","TLE_LINE1":"1 46693U 20073Z   22007.88797793  .00000996  00000-0  85786-4 0  9991"},{"EPHEMERIS_TYPE":"0","SITE":"AFETR","OBJECT_ID":"2020-073AA","MEAN_ELEMENT_THEORY":"SGP4","MEAN_MOTION":"15.06397081","TLE_LINE1":"1 46694U 20073AA  22007.84559112  .00000506  00000-0  52986-4 0  9992","FILE":"3266804","GP_ID":"193424902","INCLINATION":"53.0533","MEAN_MOTION_DOT":"0.00000506","TLE_LINE2":"2 46694  53.0533 213.4548 0004907  68.4053 291.7458 15.06397081 68036","PERIAPSIS":"543.824","OBJECT_TYPE":"PAYLOAD","DECAY_DATE":null,"ARG_OF_PERICENTER":"68.4053","OBJECT_NAME":"STARLINK-1793","REF_FRAME":"TEME","COUNTRY_CODE":"US","ECCENTRICITY":"0.00049070","PERIOD":"95.592","LAUNCH_DATE":"2020-10-18","CENTER_NAME":"EARTH","CLASSIFICATION_TYPE":"U","APOAPSIS":"550.621","EPOCH":"2022-01-07T20:17:39.072768","SEMIMAJOR_AXIS":"6925.358","BSTAR":"0.00005298600000","NORAD_CAT_ID":"46694","MEAN_MOTION_DDOT":"0.0000000000000","TIME_SYSTEM":"UTC","ELEMENT_SET_NO":"999","RCS_SIZE":"LARGE","REV_AT_EPOCH":"6803","RA_OF_ASC_NODE":"213.4548","MEAN_ANOMALY":"291.7458"},{"SITE":"AFETR","OBJECT_ID":"2020-073AC","EPHEMERIS_TYPE":"0","MEAN_MOTION":"15.06388863","MEAN_ELEMENT_THEORY":"SGP4","FILE":"3266804","GP_ID":"193425152","TLE_LINE1":"1 46696U 20073AC  22007.86402111  .00000288  00000-0  38230-4 0  9995","INCLINATION":"53.0543","MEAN_MOTION_DOT":"0.00000288","PERIAPSIS":"545.924","TLE_LINE2":"2 46696  53.0543 213.3521 0001912  61.8708 298.2474 15.06388863 68034","OBJECT_TYPE":"PAYLOAD","DECAY_DATE":null,"ARG_OF_PERICENTER":"61.8708","OBJECT_NAME":"STARLINK-1795","ECCENTRICITY":"0.00019120","COUNTRY_CODE":"US","REF_FRAME":"TEME","CENTER_NAME":"EARTH","LAUNCH_DATE":"2020-10-18","PERIOD":"95.593","EPOCH":"2022-01-07T20:44:11.423904","CLASSIFICATION_TYPE":"U","APOAPSIS":"548.572","TIME_SYSTEM":"UTC","MEAN_MOTION_DDOT":"0.0000000000000","BSTAR":"0.00003823000000","SEMIMAJOR_AXIS":"6925.383","NORAD_CAT_ID":"46696","ELEMENT_SET_NO":"999","REV_AT_EPOCH":"6803","MEAN_ANOMALY":"298.2474","RA_OF_ASC_NODE":"213.3521","RCS_SIZE":"LARGE"},{"SEMIMAJOR_AXIS":"6925.358","BSTAR":"0.00005223900000","NORAD_CAT_ID":"46698","MEAN_MOTION_DDOT":"0.0000000000000","TIME_SYSTEM":"UTC","ELEMENT_SET_NO":"999","RCS_SIZE":"LARGE","REV_AT_EPOCH":"6775","MEAN_ANOMALY":"303.8125","RA_OF_ASC_NODE":"233.4012","OBJECT_NAME":"STARLINK-1797","REF_FRAME":"TEME","COUNTRY_CODE":"US","ECCENTRICITY":"0.00021810","PERIOD":"95.592","LAUNCH_DATE":"2020-10-18","CENTER_NAME":"EARTH","CLASSIFICATION_TYPE":"U","APOAPSIS":"548.733","EPOCH":"2022-01-07T20:30:54.162720","MEAN_MOTION_DOT":"0.00000496","PERIAPSIS":"545.713","TLE_LINE2":"2 46698  53.0532 233.4012 0002181  56.3072 303.8125 15.06396942 67755","OBJECT_TYPE":"PAYLOAD","DECAY_DATE":null,"ARG_OF_PERICENTER":"56.3072","EPHEMERIS_TYPE":"0","SITE":"AFETR","OBJECT_ID":"2020-073AE","MEAN_ELEMENT_THEORY":"SGP4","MEAN_MOTION":"15.06396942","TLE_LINE1":"1 46698U 20073AE  22007.85479355  .00000496  00000-0  52239-4 0  9996","FILE":"3266804","GP_ID":"193425401","INCLINATION":"53.0532"}];
